OBJECT_NAME,OBJECT_ID,EPOCH,MEAN_MOTION,ECCENTRICITY,INCLINATION,RA_OF_ASC_NODE,ARG_OF_PERICENTER,MEAN_ANOMALY,EPHEMERIS_TYPE,CLASSIFICATION_TYPE,NORAD_CAT_ID,ELEMENT_SET_NO,REV_AT_EPOCH,BSTAR,MEAN_MOTION_DOT,MEAN_MOTION_DDOT
ALOS-2,2014-029A,2026-07-17T13:46:29.948736,14.79472629,.00016223,97.9234,295.3036,91.8017,268.3380,0,U,39766,999,65607,.17932455E-3,.1288E-4,0
KAZEOSAT 2,2014-033A,2026-07-17T14:37:15.585888,14.85500264,.00075747,97.5389,36.6118,210.5158,149.5618,0,U,40010,999,65347,-.40904347E-4,-.403E-5,0
HODOYOSHI-4,2014-033B,2026-07-17T15:03:49.803264,14.88191346,.00228221,97.5456,21.9826,201.2409,158.7863,0,U,40011,999,65333,.8985742E-5,.31E-6,0
DEIMOS-2,2014-033D,2026-07-17T14:16:51.448224,14.93798348,.0001197,97.5782,72.0100,110.7174,249.4175,0,U,40013,999,64226,.77828054E-4,.771E-5,0
HODOYOSHI-3,2014-033F,2026-07-17T10:20:21.172704,14.85439741,.00313427,97.6448,0.2599,254.2011,105.5748,0,U,40015,999,65211,.63241257E-4,.496E-5,0
SPOT 7,2014-034A,2026-07-17T14:10:14.081664,14.60982741,.00016083,98.0612,260.2967,93.9962,266.1423,0,U,40053,999,64157,.84060868E-4,.367E-5,0
SKYSAT-B,2014-037D,2026-07-17T07:36:16.339392,14.88094588,.00057448,98.3855,159.0039,166.2575,193.8798,0,U,40072,999,65044,.69846343E-4,.581E-5,0
WORLDVIEW-3 (WV-3),2014-048A,2026-07-17T14:56:48.533280,14.85066200,.00014869,97.8555,273.0342,152.0696,208.0599,0,U,40115,999,64642,.44176354E-4,.324E-5,0
GAOFEN-2,2014-049A,2026-07-17T15:34:37.017120,14.80928239,.00083596,98.0093,262.8250,127.5906,232.6066,0,U,40118,999,64374,.6587496E-5,-.2E-7,0
YAOGAN-21,2014-053A,2026-07-17T15:24:52.267968,15.26783429,.00075307,97.1450,237.5764,359.1218,1.0007,0,U,40143,999,65960,.24020931E-3,.6259E-4,0
YAOGAN-22,2014-063A,2026-07-16T23:56:40.782336,13.15531563,.00068883,100.7764,349.7708,121.3776,238.8010,0,U,40275,999,56373,.44074931E-4,-.3E-6,0
ASNARO,2014-070A,2026-07-17T15:31:19.917984,15.19401538,.00048496,97.3441,273.9425,81.4907,278.6877,0,U,40298,999,64863,.22670516E-3,.4734E-4,0
YAOGAN-24,2014-072A,2026-07-17T15:40:37.344000,14.76119397,.00147902,98.1531,336.2511,161.8641,198.3099,0,U,40310,999,62821,.18909903E-4,.77E-6,0
CBERS 4,2014-079A,2026-07-17T15:16:14.611008,14.35517047,.00006995,98.3513,254.5103,54.9795,305.1456,0,U,40336,999,60832,.85106229E-4,.203E-5,0
YAOGAN-26,2014-088A,2026-07-17T15:29:24.453024,15.48506090,.00015042,97.0651,198.1667,325.2884,34.8269,0,U,40362,999,64241,.19547752E-3,.10309E-3,0
SMAP,2015-003A,2026-07-17T13:48:41.182560,14.63390188,.0001616,98.1285,205.2407,94.0651,266.0736,0,U,40376,999,61206,.39625841E-4,.158E-5,0
KOMPSAT-3A,2015-014A,2026-07-17T14:52:49.239840,15.55525236,.00559804,97.6896,192.2441,67.1237,293.5913,0,U,40536,999,62654,.26019985E-3,.18983E-3,0
SENTINEL-2A,2015-028A,2026-07-17T15:13:22.025280,14.30814818,.00013027,98.5678,273.0523,94.0159,266.1173,0,U,40697,999,57808,.31286108E-4,.38E-6,0
GAOFEN-8,2015-030A,2026-07-17T15:04:26.772960,15.47002378,.00099353,97.6891,33.8486,88.2010,272.0377,0,U,40701,999,61615,.23250343E-3,.11664E-3,0
CARBONITE 1 (CBNT-1),2015-032D,2026-07-17T14:23:25.174752,14.83674038,.00140787,97.6520,15.3956,188.6578,171.4396,0,U,40718,999,59385,.16240987E-3,.1292E-4,0
YAOGAN-27,2015-040A,2026-07-17T14:08:02.183424,13.16070560,.00085886,100.1170,183.6549,139.9615,220.2134,0,U,40878,999,52166,-.11363711E-2,-.474E-5,0
GAOFEN-9 01,2015-047A,2026-07-17T15:06:16.873344,14.82937540,.00282891,97.6264,232.9395,42.8219,317.5192,0,U,40894,999,58470,.57583868E-4,.419E-5,0
YAOGAN-28,2015-064A,2026-07-17T15:37:32.943936,15.27777451,.00120395,97.3116,336.3056,85.5429,274.7186,0,U,41026,999,59533,.12605779E-3,.3353E-4,0
YAOGAN-29,2015-069A,2026-07-17T14:32:09.798144,14.83106854,.00005782,98.0013,227.2850,7.1192,353.0030,0,U,41038,999,57513,-.17764856E-4,-.199E-5,0
KENT RIDGE 1,2015-077B,2026-07-17T05:16:20.998272,15.23290017,.0008278,14.9805,42.6050,303.2914,56.6615,0,U,41167,999,58568,.62908046E-4,.2298E-4,0
GAOFEN-4,2015-083A,2026-07-17T18:43:43.891968,1.00271727,.0004182,0.4346,83.8445,123.4605,114.9209,0,U,41194,999,3883,0,-.344E-5,0
JASON-3,2016-002A,2026-07-17T14:30:45.861408,12.87628762,.00081569,66.0416,61.8864,270.6810,89.3274,0,U,41240,999,49116,.11013843E-3,-.34E-6,0
SENTINEL-3A,2016-011A,2026-07-17T13:59:12.793344,14.26740189,.0001339,98.6236,265.5276,89.5234,270.6100,0,U,41335,999,54239,.35855762E-4,.43E-6,0
ZIYUAN 3-02 (ZY 3-02),2016-033A,2026-07-17T15:26:02.143968,15.21447873,.00143512,97.3824,273.8321,176.4040,183.7302,0,U,41556,999,56261,.11607244E-3,.2545E-4,0
CARTOSAT-2C,2016-040A,2026-07-17T14:55:03.515808,15.19277611,.00093719,97.4465,258.1779,37.7415,322.4475,0,U,41599,999,55833,.148048E-3,.3057E-4,0
