ALOS-2                  
1 39766U 14029A   26198.57395774  .00001288  00000+0  17932-3 0  9993
2 39766  97.9234 295.3036 0001622  91.8017 268.3380 14.79472629656077
KAZEOSAT 2              
1 40010U 14033A   26198.60920817 -.00000403  00000+0 -40904-4 0  9994
2 40010  97.5389  36.6118 0007574 210.5158 149.5618 14.85500264653472
HODOYOSHI-4             
1 40011U 14033B   26198.62765976  .00000031  00000+0  89857-5 0  9996
2 40011  97.5456  21.9826 0022822 201.2409 158.7863 14.88191346653339
DEIMOS-2                
1 40013U 14033D   26198.59503991  .00000771  00000+0  77828-4 0  9996
2 40013  97.5782  72.0100 0001197 110.7174 249.4175 14.93798348642265
HODOYOSHI-3             
1 40015U 14033F   26198.43080061  .00000496  00000+0  63241-4 0  9997
2 40015  97.6448   0.2599 0031342 254.2011 105.5748 14.85439741652114
SPOT 7                  
1 40053U 14034A   26198.59044076  .00000367  00000+0  84061-4 0  9993
2 40053  98.0612 260.2967 0001608  93.9962 266.1423 14.60982741641574
SKYSAT-B                
1 40072U 14037D   26198.31685578  .00000581  00000+0  69846-4 0  9997
2 40072  98.3855 159.0039 0005744 166.2575 193.8798 14.88094588650441
WORLDVIEW-3 (WV-3)      
1 40115U 14048A   26198.62278395  .00000324  00000+0  44176-4 0  9990
2 40115  97.8555 273.0342 0001486 152.0696 208.0599 14.85066200646428
GAOFEN-2                
1 40118U 14049A   26198.64903955 -.00000002  00000+0  65875-5 0  9997
2 40118  98.0093 262.8250 0008359 127.5906 232.6066 14.80928239643740
YAOGAN-21               
1 40143U 14053A   26198.64227162  .00006259  00000+0  24021-3 0  9994
2 40143  97.1450 237.5764 0007530 359.1218   1.0007 15.26783429659609
YAOGAN-22               
1 40275U 14063A   26197.99769424 -.00000030  00000+0  44075-4 0  9994
2 40275 100.7764 349.7708 0006888 121.3776 238.8010 13.15531563563739
ASNARO                  
1 40298U 14070A   26198.64675831  .00004734  00000+0  22671-3 0  9999
2 40298  97.3441 273.9425 0004849  81.4907 278.6877 15.19401538648638
YAOGAN-24               
1 40310U 14072A   26198.65321000  .00000077  00000+0  18910-4 0  9991
2 40310  98.1531 336.2511 0014790 161.8641 198.3099 14.76119397628212
CBERS 4                 
1 40336U 14079A   26198.63628022  .00000203  00000+0  85106-4 0  9990
2 40336  98.3513 254.5103 0000699  54.9795 305.1456 14.35517047608320
YAOGAN-26               
1 40362U 14088A   26198.64542191  .00010309  00000+0  19548-3 0  9996
2 40362  97.0651 198.1667 0001504 325.2884  34.8269 15.48506090642412
SMAP                    
1 40376U 15003A   26198.57547665  .00000158  00000+0  39626-4 0  9993
2 40376  98.1285 205.2407 0001616  94.0651 266.0736 14.63390188612062
KOMPSAT-3A              
1 40536U 15014A   26198.62001435  .00018983  00000+0  26020-3 0  9997
2 40536  97.6896 192.2441 0055980  67.1237 293.5913 15.55525236626545
SENTINEL-2A             
1 40697U 15028A   26198.63428270  .00000038  00000+0  31286-4 0  9994
2 40697  98.5678 273.0523 0001302  94.0159 266.1173 14.30814818578089
GAOFEN-8                
1 40701U 15030A   26198.62808765  .00011664  00000+0  23250-3 0  9991
2 40701  97.6891  33.8486 0009935  88.2010 272.0377 15.47002378616155
CARBONITE 1 (CBNT-1)    
1 40718U 15032D   26198.59959693  .00001292  00000+0  16241-3 0  9992
2 40718  97.6520  15.3956 0014078 188.6578 171.4396 14.83674038593858
YAOGAN-27               
1 40878U 15040A   26198.58891416 -.00000474  00000+0 -11364-2 0  9998
2 40878 100.1170 183.6549 0008588 139.9615 220.2134 13.16070560521661
GAOFEN-9 01             
1 40894U 15047A   26198.62936196  .00000419  00000+0  57584-4 0  9996
2 40894  97.6264 232.9395 0028289  42.8219 317.5192 14.82937540584704
YAOGAN-28               
1 41026U 15064A   26198.65107574  .00003353  00000+0  12606-3 0  9991
2 41026  97.3116 336.3056 0012039  85.5429 274.7186 15.27777451595332
YAOGAN-29               
1 41038U 15069A   26198.60566896 -.00000199  00000+0 -17765-4 0  9999
2 41038  98.0013 227.2850 0000578   7.1192 353.0030 14.83106854575130
KENT RIDGE 1            
1 41167U 15077B   26198.21968748  .00002298  00000+0  62908-4 0  9999
2 41167  14.9805  42.6050 0008278 303.2914  56.6615 15.23290017585683
GAOFEN-4                
1 41194U 15083A   26198.78036912 -.00000344  00000+0  00000+0 0  9998
2 41194   0.4346  83.8445 0004182 123.4605 114.9209  1.00271727 38831
JASON-3                 
1 41240U 16002A   26198.60469747 -.00000034  00000+0  11014-3 0  9996
2 41240  66.0416  61.8864 0008156 270.6810  89.3274 12.87628762491166
SENTINEL-3A             
1 41335U 16011A   26198.58278696  .00000043  00000+0  35856-4 0  9999
2 41335  98.6236 265.5276 0001339  89.5234 270.6100 14.26740189542393
ZIYUAN 3-02 (ZY 3-02)   
1 41556U 16033A   26198.64308037  .00002545  00000+0  11607-3 0  9994
2 41556  97.3824 273.8321 0014351 176.4040 183.7302 15.21447873562614
CARTOSAT-2C             
1 41599U 16040A   26198.62156847  .00003057  00000+0  14805-3 0  9999
2 41599  97.4465 258.1779 0009371  37.7415 322.4475 15.19277611558332
